start=new Date('2022-08-12T00:00:00.000Z').valueOf();
sats=[{"MEAN_MOTION":"15.08825877","OBJECT_TYPE":"PAYLOAD","MEAN_MOTION_DOT":"0.00023025","CENTER_NAME":"EARTH","SITE":"AFETR","EPHEMERIS_TYPE":"0","ARG_OF_PERICENTER":"57.1234","GP_ID":"210041191","EPOCH":"2022-08-11T22:00:00.999936","TLE_LINE1":"1 51736U 22016Y   22223.91667824  .00023025  00000-0  14606-2 0  9998","RCS_SIZE":"LARGE","FILE":"3534742","BSTAR":"0.00146060000000","RA_OF_ASC_NODE":"60.9555","CLASSIFICATION_TYPE":"U","NORAD_CAT_ID":"51736","INCLINATION":"53.2163","MEAN_ANOMALY":"282.3731","TIME_SYSTEM":"UTC","MEAN_ELEMENT_THEORY":"SGP4","REV_AT_EPOCH":"2756","LAUNCH_DATE":"2022-02-21","PERIAPSIS":"538.724","OBJECT_NAME":"STARLINK-3447","ELEMENT_SET_NO":"999","PERIOD":"95.438","DECAY_DATE":null,"APOAPSIS":"540.853","COUNTRY_CODE":"US","SEMIMAJOR_AXIS":"6917.924","ECCENTRICITY":"0.00015390","MEAN_MOTION_DDOT":"0.0000000000000","REF_FRAME":"TEME","TLE_LINE2":"2 51736  53.2163  60.9555 0001539  57.1234 282.3731 15.08825877 27561","OBJECT_ID":"2022-016Y"},{"GP_ID":"210042438","EPOCH":"2022-08-12T00:00:00.999648","TLE_LINE1":"1 51737U 22016Z   22224.00001157  .00046220  00000-0  29064-2 0  9997","OBJECT_TYPE":"PAYLOAD","CENTER_NAME":"EARTH","MEAN_MOTION_DOT":"0.00046220","MEAN_MOTION":"15.08800160","ARG_OF_PERICENTER":"58.8159","SITE":"AFETR","EPHEMERIS_TYPE":"0","PERIAPSIS":"538.875","LAUNCH_DATE":"2022-02-21","REV_AT_EPOCH":"2750","RA_OF_ASC_NODE":"60.5837","CLASSIFICATION_TYPE":"U","FILE":"3534798","BSTAR":"0.00290640000000","RCS_SIZE":"LARGE","MEAN_ELEMENT_THEORY":"SGP4","TIME_SYSTEM":"UTC","NORAD_CAT_ID":"51737","INCLINATION":"53.2159","MEAN_ANOMALY":"313.6586","DECAY_DATE":null,"PERIOD":"95.440","COUNTRY_CODE":"US","APOAPSIS":"540.859","OBJECT_NAME":"STARLINK-3509","ELEMENT_SET_NO":"999","TLE_LINE2":"2 51737  53.2159  60.5837 0001434  58.8159 313.6586 15.08800160 27502","MEAN_MOTION_DDOT":"0.0000000000000","REF_FRAME":"TEME","OBJECT_ID":"2022-016Z","SEMIMAJOR_AXIS":"6918.002","ECCENTRICITY":"0.00014340"},{"GP_ID":"210042446","EPOCH":"2022-08-12T00:00:00.999648","TLE_LINE1":"1 51738U 22016AA  22224.00001157  .00017905  00000-0  11403-2 0  9994","MEAN_MOTION":"15.08837801","CENTER_NAME":"EARTH","OBJECT_TYPE":"PAYLOAD","MEAN_MOTION_DOT":"0.00017905","EPHEMERIS_TYPE":"0","SITE":"AFETR","ARG_OF_PERICENTER":"58.0325","REV_AT_EPOCH":"2756","LAUNCH_DATE":"2022-02-21","PERIAPSIS":"538.539","FILE":"3534798","BSTAR":"0.00114030000000","RCS_SIZE":"LARGE","CLASSIFICATION_TYPE":"U","RA_OF_ASC_NODE":"60.5850","MEAN_ANOMALY":"54.4207","NORAD_CAT_ID":"51738","INCLINATION":"53.2178","TIME_SYSTEM":"UTC","MEAN_ELEMENT_THEORY":"SGP4","PERIOD":"95.438","DECAY_DATE":null,"APOAPSIS":"540.965","COUNTRY_CODE":"US","OBJECT_NAME":"STARLINK-3515","ELEMENT_SET_NO":"999","REF_FRAME":"TEME","MEAN_MOTION_DDOT":"0.0000000000000","TLE_LINE2":"2 51738  53.2178  60.5850 0001753  58.0325  54.4207 15.08837801 27568","OBJECT_ID":"2022-016AA","SEMIMAJOR_AXIS":"6917.887","ECCENTRICITY":"0.00017530"},{"TLE_LINE1":"1 51739U 22016AB  22223.91667824  .00024798  00000-0  15715-2 0  9991","GP_ID":"210041073","EPOCH":"2022-08-11T22:00:00.999936","EPHEMERIS_TYPE":"0","SITE":"AFETR","ARG_OF_PERICENTER":"62.8865","MEAN_MOTION":"15.08820983","OBJECT_TYPE":"PAYLOAD","CENTER_NAME":"EARTH","MEAN_MOTION_DOT":"0.00024798","REV_AT_EPOCH":"2755","LAUNCH_DATE":"2022-02-21","PERIAPSIS":"538.700","MEAN_ANOMALY":"256.7020","NORAD_CAT_ID":"51739","INCLINATION":"53.2177","TIME_SYSTEM":"UTC","MEAN_ELEMENT_THEORY":"SGP4","RCS_SIZE":"LARGE","FILE":"3534736","BSTAR":"0.00157150000000","CLASSIFICATION_TYPE":"U","RA_OF_ASC_NODE":"60.9589","APOAPSIS":"540.907","COUNTRY_CODE":"US","PERIOD":"95.439","DECAY_DATE":null,"ELEMENT_SET_NO":"999","OBJECT_NAME":"STARLINK-3516","OBJECT_ID":"2022-016AB","REF_FRAME":"TEME","MEAN_MOTION_DDOT":"0.0000000000000","TLE_LINE2":"2 51739  53.2177  60.9589 0001595  62.8865 256.7020 15.08820983 27559","ECCENTRICITY":"0.00015950","SEMIMAJOR_AXIS":"6917.939"},{"GP_ID":"210041070","EPOCH":"2022-08-11T22:00:00.999936","TLE_LINE1":"1 51740U 22016AC  22223.91667824  .00022249  00000-0  14123-2 0  9994","MEAN_MOTION":"15.08822310","MEAN_MOTION_DOT":"0.00022249","OBJECT_TYPE":"PAYLOAD","CENTER_NAME":"EARTH","SITE":"AFETR","EPHEMERIS_TYPE":"0","ARG_OF_PERICENTER":"61.7650","LAUNCH_DATE":"2022-02-21","REV_AT_EPOCH":"2750","PERIAPSIS":"538.719","FILE":"3534736","BSTAR":"0.00141230000000","RCS_SIZE":"LARGE","RA_OF_ASC_NODE":"60.9560","CLASSIFICATION_TYPE":"U","INCLINATION":"53.2170","NORAD_CAT_ID":"51740","MEAN_ANOMALY":"357.7185","TIME_SYSTEM":"UTC","MEAN_ELEMENT_THEORY":"SGP4","DECAY_DATE":null,"PERIOD":"95.439","APOAPSIS":"540.880","COUNTRY_CODE":"US","OBJECT_NAME":"STARLINK-3500","ELEMENT_SET_NO":"999","MEAN_MOTION_DDOT":"0.0000000000000","REF_FRAME":"TEME","TLE_LINE2":"2 51740  53.2170  60.9560 0001562  61.7650 357.7185 15.08822310 27502","OBJECT_ID":"2022-016AC","SEMIMAJOR_AXIS":"6917.934","ECCENTRICITY":"0.00015620"},{"APOAPSIS":"540.968","COUNTRY_CODE":"US","DECAY_DATE":null,"PERIOD":"95.439","ELEMENT_SET_NO":"999","OBJECT_NAME":"STARLINK-3520","OBJECT_ID":"2022-016AD","MEAN_MOTION_DDOT":"0.0000000000000","REF_FRAME":"TEME","TLE_LINE2":"2 51741  53.2172  60.9571 0001693  65.9837 293.5494 15.08823088 27542","ECCENTRICITY":"0.00016930","SEMIMAJOR_AXIS":"6917.932","TLE_LINE1":"1 51741U 22016AD  22223.91667824  .00022488  00000-0  14272-2 0  9995","EPOCH":"2022-08-11T22:00:00.999936","GP_ID":"210041068","SITE":"AFETR","EPHEMERIS_TYPE":"0","ARG_OF_PERICENTER":"65.9837","MEAN_MOTION":"15.08823088","CENTER_NAME":"EARTH","OBJECT_TYPE":"PAYLOAD","MEAN_MOTION_DOT":"0.00022488","LAUNCH_DATE":"2022-02-21","REV_AT_EPOCH":"2754","PERIAPSIS":"538.626","NORAD_CAT_ID":"51741","INCLINATION":"53.2172","MEAN_ANOMALY":"293.5494","MEAN_ELEMENT_THEORY":"SGP4","TIME_SYSTEM":"UTC","FILE":"3534736","BSTAR":"0.00142720000000","RCS_SIZE":"LARGE","RA_OF_ASC_NODE":"60.9571","CLASSIFICATION_TYPE":"U"},{"DECAY_DATE":null,"PERIOD":"95.438","COUNTRY_CODE":"US","APOAPSIS":"540.890","OBJECT_NAME":"STARLINK-3521","ELEMENT_SET_NO":"999","TLE_LINE2":"2 51742  53.2160  60.9528 0001622  56.2207  23.3068 15.08832697 27573","REF_FRAME":"TEME","MEAN_MOTION_DDOT":"0.0000000000000","OBJECT_ID":"2022-016AE","SEMIMAJOR_AXIS":"6917.903","ECCENTRICITY":"0.00016220","EPOCH":"2022-08-11T22:00:00.999936","GP_ID":"210040881","TLE_LINE1":"1 51742U 22016AE  22223.91667824  .00023225  00000-0  14728-2 0  9992","MEAN_MOTION_DOT":"0.00023225","OBJECT_TYPE":"PAYLOAD","CENTER_NAME":"EARTH","MEAN_MOTION":"15.08832697","ARG_OF_PERICENTER":"56.2207","EPHEMERIS_TYPE":"0","SITE":"AFETR","PERIAPSIS":"538.646","LAUNCH_DATE":"2022-02-21","REV_AT_EPOCH":"2757","CLASSIFICATION_TYPE":"U","RA_OF_ASC_NODE":"60.9528","FILE":"3534736","RCS_SIZE":"LARGE","BSTAR":"0.00147280000000","TIME_SYSTEM":"UTC","MEAN_ELEMENT_THEORY":"SGP4","MEAN_ANOMALY":"23.3068","INCLINATION":"53.2160","NORAD_CAT_ID":"51742"},{"GP_ID":"210041062","EPOCH":"2022-08-11T22:00:00.999936","TLE_LINE1":"1 51743U 22016AF  22223.91667824  .00039839  00000-0  25091-2 0  9996","CENTER_NAME":"EARTH","OBJECT_TYPE":"PAYLOAD","MEAN_MOTION_DOT":"0.00039839","MEAN_MOTION":"15.08811515","ARG_OF_PERICENTER":"57.7993","SITE":"AFETR","EPHEMERIS_TYPE":"0","PERIAPSIS":"538.620","LAUNCH_DATE":"2022-02-21","REV_AT_EPOCH":"2770","RA_OF_ASC_NODE":"50.9625","CLASSIFICATION_TYPE":"U","RCS_SIZE":"LARGE","FILE":"3534736","BSTAR":"0.00250910000000","TIME_SYSTEM":"UTC","MEAN_ELEMENT_THEORY":"SGP4","NORAD_CAT_ID":"51743","INCLINATION":"53.2154","MEAN_ANOMALY":"236.7455","DECAY_DATE":null,"PERIOD":"95.439","COUNTRY_CODE":"US","APOAPSIS":"541.044","OBJECT_NAME":"STARLINK-3512","ELEMENT_SET_NO":"999","TLE_LINE2":"2 51743  53.2154  50.9625 0001752  57.7993 236.7455 15.08811515 27707","MEAN_MOTION_DDOT":"0.0000000000000","REF_FRAME":"TEME","OBJECT_ID":"2022-016AF","SEMIMAJOR_AXIS":"6917.967","ECCENTRICITY":"0.00017520"},{"PERIAPSIS":"538.589","LAUNCH_DATE":"2022-02-21","REV_AT_EPOCH":"2751","RA_OF_ASC_NODE":"60.5807","CLASSIFICATION_TYPE":"U","BSTAR":"0.00346500000000","FILE":"3534796","RCS_SIZE":"MEDIUM","MEAN_ELEMENT_THEORY":"SGP4","TIME_SYSTEM":"UTC","INCLINATION":"53.2177","NORAD_CAT_ID":"51744","MEAN_ANOMALY":"155.6571","EPOCH":"2022-08-12T00:00:00.999648","GP_ID":"210042448","TLE_LINE1":"1 51744U 22016AG  22224.00001157  .00055241  00000-0  34650-2 0  9995","OBJECT_TYPE":"PAYLOAD","CENTER_NAME":"EARTH","MEAN_MOTION_DOT":"0.00055241","MEAN_MOTION":"15.08807454","ARG_OF_PERICENTER":"51.6044","SITE":"AFETR","EPHEMERIS_TYPE":"0","TLE_LINE2":"2 51744  53.2177  60.5807 0001815  51.6044 155.6571 15.08807454 27516","MEAN_MOTION_DDOT":"0.0000000000000","REF_FRAME":"TEME","OBJECT_ID":"2022-016AG","SEMIMAJOR_AXIS":"6917.980","ECCENTRICITY":"0.00018150","DECAY_DATE":null,"PERIOD":"95.440","COUNTRY_CODE":"US","APOAPSIS":"541.100","OBJECT_NAME":"STARLINK-3452","ELEMENT_SET_NO":"999"},{"CLASSIFICATION_TYPE":"U","RA_OF_ASC_NODE":"60.9586","RCS_SIZE":"LARGE","FILE":"3534736","BSTAR":"0.00075945000000","TIME_SYSTEM":"UTC","MEAN_ELEMENT_THEORY":"SGP4","MEAN_ANOMALY":"345.5316","INCLINATION":"53.2178","NORAD_CAT_ID":"51745","PERIAPSIS":"538.387","LAUNCH_DATE":"2022-02-21","REV_AT_EPOCH":"2757","OBJECT_TYPE":"PAYLOAD","MEAN_MOTION_DOT":"0.00011813","CENTER_NAME":"EARTH","MEAN_MOTION":"15.08821293","ARG_OF_PERICENTER":"54.0416","EPHEMERIS_TYPE":"0","SITE":"AFETR","EPOCH":"2022-08-11T22:00:00.999936","GP_ID":"210041072","TLE_LINE1":"1 51745U 22016AH  22223.91667824  .00011813  00000-0  75945-3 0  9994","SEMIMAJOR_AXIS":"6917.938","ECCENTRICITY":"0.00020460","TLE_LINE2":"2 51745  53.2178  60.9586 0002046  54.0416 345.5316 15.08821293 27573","REF_FRAME":"TEME","MEAN_MOTION_DDOT":"0.0000000000000","OBJECT_ID":"2022-016AH","OBJECT_NAME":"STARLINK-3449","ELEMENT_SET_NO":"999","DECAY_DATE":null,"PERIOD":"95.439","COUNTRY_CODE":"US","APOAPSIS":"541.218"}];
